IRIDIUM 36 [-]          
1 24967U 97056C   24095.43994320  .00000515  00000+0  16825-3 0  9994
2 24967  86.4023 357.2498 0002177  81.3246 278.8198 14.36710215389207
IRIDIUM 38 [-]          
1 25043U 97069E   24095.60982736  .00000613  00000+0  19953-3 0  9995
2 25043  86.3952  57.5641 0004088  91.8345 268.3321 14.37149500382942
IRIDIUM 42 [-]          
1 25077U 97077A   24095.43634233  .00000566  00000+0  19025-3 0  9995
2 25077  86.3943  63.2721 0002862  93.2962 266.8562 14.35458902378235
IRIDIUM 44 [-]          
1 25078U 97077B   24095.59307779  .00000629  00000+0  19647-3 0  9995
2 25078  86.3972  46.3047 0003619  61.4181 298.7382 14.39287360380590
IRIDIUM 45 [-]          
1 25104U 97082A   24095.48023338  .00016099  00000+0  93802-3 0  9998
2 25104  86.3708 256.7899 0166705 146.9888 214.1889 15.00800073386049
IRIDIUM 24 [-]          
1 25105U 97082B   24095.56361487  .00000584  00000+0  17511-3 0  9993
2 25105  86.3861 266.0405 0013569  87.2894 272.9858 14.41051838380021
